AXIOM-3 DEB             
1 58953U 24014B   24046.71372473  .00894693  35853-3  14184-2 0  9997
2 58953  51.2786 199.4242 0100286  80.0221 281.2081 15.94085465   999
LEMUR-2-CAEL            
1 58903U 24022E   24046.91606872  .00011559  00000+0  66280-3 0  9995
2 58903  97.4889 249.5825 0012964 216.1879 143.8476 15.12662007  2367
2024-023A               
1 58905U 24023A   24047.18695344  .00006814  00000+0  75942-3 0  9993
2 58905  49.9969  15.4236 0009872 344.8330  15.2312 14.87955705  1968
2024-023B               
1 58906U 24023B   24047.17992078  .00007082  00000+0  76250-3 0  9998
2 58906  50.0006  15.3842 0009464 315.8883  44.1303 14.89310904  1963
2024-023C               
1 58907U 24023C   24047.17858801  .00005384  00000+0  58412-3 0  9997
2 58907  50.0018  15.3770 0007585 321.9613  38.0791 14.89437369  1966
2024-023D               
1 58908U 24023D   24047.17813789  .00005456  00000+0  59088-3 0  9994
2 58908  49.9934  15.3650 0008087 322.8497  37.1884 14.89487971  1963
2024-023E               
1 58909U 24023E   24047.17066807  .00007341  00000+0  76140-3 0  9999
2 58909  50.0064  15.3332 0010910 296.4291  63.5531 14.90768701  1961
2024-023F               
1 58910U 24023F   24047.17672021  .00008573  00000+0  90926-3 0  9998
2 58910  49.9904  15.3529 0008953 326.1577  33.8791 14.89684552  1960
2024-023G               
1 58911U 24023G   24047.17468118  .00007271  00000+0  77086-3 0  9995
2 58911  50.0077  15.3597 0008856 333.4166  26.6320 14.89906385  1966
2024-023H               
1 58912U 24023H   24047.17359580  .00008294  00000+0  87272-3 0  9992
2 58912  49.9918  15.3350 0009886 334.3041  25.7408 14.90040240  1969
2024-023J               
1 58913U 24023J   24047.16652855  .00007517  00000+0  76895-3 0  9999
2 58913  50.0065  15.3073 0008033 310.3048  49.7191 14.91315338  1961
2024-023K               
1 58914U 24023K   24047.18129872  .00007016  00000+0  77671-3 0  9997
2 58914  49.9968  15.3880 0017323   2.7318 357.3713 14.88123511  1965
2024-023L               
1 58915U 24023L   24047.17114429  .00008436  00000+0  88103-3 0  9998
2 58915  50.0018  15.3309 0010628 339.9419  20.1103 14.90319834  1965
2024-023M               
1 58916U 24023M   24047.15830270  .00001981  00000+0  34613-3 0  9991
2 58916  49.8986  17.1117 0099312 280.9900  77.9872 14.68888699  1935
2024-024A               
1 58917U 24024A   24047.16076069  .00023387  00000+0  11628-2 0  9996
2 58917  97.4028 124.3685 0008633 230.9567 129.0899 15.17604939  1984
2024-024B               
1 58918U 24024B   24047.16145570  .00015689  00000+0  78575-3 0  9992
2 58918  97.4035 124.3684 0010243 233.6586 126.3703 15.17421998  1978
2024-024C               
1 58919U 24024C   24047.15861391  .00019595  00000+0  96941-3 0  9995
2 58919  97.4032 124.3712 0009380 241.9508 118.0778 15.17810977  1973
2024-024D               
1 58920U 24024D   24047.15789998  .00023653  00000+0  11644-2 0  9995
2 58920  97.4046 124.3748 0009326 243.0708 116.9573 15.17945035  1978
2024-024E               
1 58921U 24024E   24047.15910977  .00008141  00000+0  40770-3 0  9997
2 58921  97.3984 124.3620 0009952 241.3206 118.7028 15.17599772  1975
2024-024F               
1 58922U 24024F   24047.15752535  .00017269  00000+0  85241-3 0  9995
2 58922  97.3982 124.3633 0010250 244.8045 115.2127 15.17908993  1971
2024-024G               
1 58923U 24024G   24047.15661596  .00023353  00000+0  11446-2 0  9998
2 58923  97.4061 124.3793 0010202 246.0255 113.9911 15.18093522  1972
2024-024H               
1 58924U 24024H   24046.82727327  .00021942  00000+0  10779-2 0  9997
2 58924  97.4031 124.0508 0010678 245.5975 114.4145 15.18021602 38640
2024-024J               
1 58925U 24024J   24047.15705285  .00014135  00000+0  69816-3 0  9997
2 58925  97.4035 124.3741 0011000 245.2519 114.7570 15.17923182 38680
2024-024K               
1 58926U 24024K   24047.17836644  .00433745  23152-5  77207-3 0  9998
2 58926  97.4138 125.3196 0237342 289.4793  68.0966 15.67003552 38745
2024-024L               
1 58927U 24024L   24047.43046253  .00041921  00000+0  20276-2 0  9992
2 58927  97.4047 124.6487 0010344 243.6360 178.5487 15.18422424  1602
PACE                    
1 58928U 24025A   24046.76591958  .00001610  00000+0  31301-3 0  9999
2 58928  98.0876 340.2595 0003839 129.7007 230.4534 14.64452729  1094
2024-026A               
1 58929U 24026A   24046.66901038  .00035644  00000+0  27515-3 0  9990
2 58929  96.7542 305.0584 0008338  18.5041  66.3270 15.71814068  1000
2024-026B               
1 58930U 24026B   24047.15906801  .00081636  00000+0  59187-3 0  9992
2 58930  96.7582 305.5581 0005544   5.1816 354.9506 15.73159225  1069
DRUMS TARGET-2          
1 58954U 21102N   24043.68002782  .00024286  00000+0  15507-2 0  9994
2 58954  97.4501  94.6710 0018702 321.7083  38.2817 15.08507723  6887
2024-028A               
1 58955U 24028A   24047.02168353 -.00000078  00000+0  00000+0 0  9997
2 58955  39.9906 358.2954 0008352 356.7988   3.2710 13.70227507   153
2024-028B               
1 58956U 24028B   24047.02164487 -.00000078  00000+0  00000+0 0  9992
2 58956  39.9924 358.2867 0008626   0.0224   0.0535 13.70279128   148
