OBJECT_NAME,OBJECT_ID,EPOCH,MEAN_MOTION,ECCENTRICITY,INCLINATION,RA_OF_ASC_NODE,ARG_OF_PERICENTER,MEAN_ANOMALY,EPHEMERIS_TYPE,CLASSIFICATION_TYPE,NORAD_CAT_ID,ELEMENT_SET_NO,REV_AT_EPOCH,BSTAR,MEAN_MOTION_DOT,MEAN_MOTION_DDOT
LEMUR-2-CAEL,2024-022E,2024-02-15T21:59:08.337408,15.12662007,0.0012964,97.4889,249.5825,216.1879,143.8476,0,U,58903,999,236,0.0006628,0.00011559,0
2024-023A,2024-023A,2024-02-16T04:29:12.777216,14.87955705,0.0009872,49.9969,15.4236,344.833,15.2312,0,U,58905,999,196,0.00075942,6.814e-05,0
2024-023B,2024-023B,2024-02-16T04:19:05.155392,14.89310904,0.0009464,50.0006,15.3842,315.8883,44.1303,0,U,58906,999,196,0.0007625,7.082e-05,0
2024-023C,2024-023C,2024-02-16T04:17:10.004064,14.89437369,0.0007585,50.0018,15.377,321.9613,38.0791,0,U,58907,999,196,0.00058412,5.384e-05,0
2024-023D,2024-023D,2024-02-16T04:16:31.113696,14.89487971,0.0008087,49.9934,15.365,322.8497,37.1884,0,U,58908,999,196,0.00059088,5.456e-05,0
2024-023E,2024-023E,2024-02-16T04:05:45.721248,14.90768701,0.001091,50.0064,15.3332,296.4291,63.5531,0,U,58909,999,196,0.0007614,7.341e-05,0
2024-023F,2024-023F,2024-02-16T04:14:28.626144,14.89684552,0.0008953,49.9904,15.3529,326.1577,33.8791,0,U,58910,999,196,0.00090926,8.573e-05,0
2024-023G,2024-023G,2024-02-16T04:11:32.453952,14.89906385,0.0008856,50.0077,15.3597,333.4166,26.632,0,U,58911,999,196,0.00077086,7.271e-05,0
2024-023H,2024-023H,2024-02-16T04:09:58.677120,14.9004024,0.0009886,49.9918,15.335,334.3041,25.7408,0,U,58912,999,196,0.00087272,8.294e-05,0
2024-023J,2024-023J,2024-02-16T03:59:48.066720,14.91315338,0.0008033,50.0065,15.3073,310.3048,49.7191,0,U,58913,999,196,0.00076895,7.517e-05,0
2024-023K,2024-023K,2024-02-16T04:21:04.209408,14.88123511,0.0017323,49.9968,15.388,2.7318,357.3713,0,U,58914,999,196,0.00077671,7.016e-05,0
2024-023L,2024-023L,2024-02-16T04:06:26.866656,14.90319834,0.0010628,50.0018,15.3309,339.9419,20.1103,0,U,58915,999,196,0.00088103,8.436e-05,0
2024-023M,2024-023M,2024-02-16T03:47:57.353280,14.68888699,0.0099312,49.8986,17.1117,280.99,77.9872,0,U,58916,999,193,0.00034613,1.981e-05,0
2024-024A,2024-024A,2024-02-16T03:51:29.723616,15.17604939,0.0008633,97.4028,124.3685,230.9567,129.0899,0,U,58917,999,198,0.0011628,0.00023387,0
2024-024B,2024-024B,2024-02-16T03:52:29.772480,15.17421998,0.0010243,97.4035,124.3684,233.6586,126.3703,0,U,58918,999,197,0.00078575,0.00015689,0
2024-024C,2024-024C,2024-02-16T03:48:24.241824,15.17810977,0.000938,97.4032,124.3712,241.9508,118.0778,0,U,58919,999,197,0.00096941,0.00019595,0
2024-024D,2024-024D,2024-02-16T03:47:22.558272,15.17945035,0.0009326,97.4046,124.3748,243.0708,116.9573,0,U,58920,999,197,0.0011644,0.00023653,0
2024-024E,2024-024E,2024-02-16T03:49:07.084128,15.17599772,0.0009952,97.3984,124.362,241.3206,118.7028,0,U,58921,999,197,0.0004077,8.141e-05,0
2024-024F,2024-024F,2024-02-16T03:46:50.190240,15.17908993,0.001025,97.3982,124.3633,244.8045,115.2127,0,U,58922,999,197,0.00085241,0.00017269,0
2024-024G,2024-024G,2024-02-16T03:45:31.618944,15.18093522,0.0010202,97.4061,124.3793,246.0255,113.9911,0,U,58923,999,197,0.0011446,0.00023353,0
2024-024H,2024-024H,2024-02-15T19:51:16.410528,15.18021602,0.0010678,97.4031,124.0508,245.5975,114.4145,0,U,58924,999,3864,0.0010779,0.00021942,0
2024-024J,2024-024J,2024-02-16T03:46:09.366240,15.17923182,0.0011,97.4035,124.3741,245.2519,114.757,0,U,58925,999,3868,0.00069816,0.00014135,0
2024-024K,2024-024K,2024-02-16T04:16:50.860416,15.67003552,0.0237342,97.4138,125.3196,289.4793,68.0966,0,U,58926,999,3874,0.00077207,0.00433745,2.3152e-06
2024-024L,2024-024L,2024-02-16T10:19:51.962592,15.18422424,0.0010344,97.4047,124.6487,243.636,178.5487,0,U,58927,999,160,0.0020276,0.00041921,0
PACE,2024-025A,2024-02-15T18:22:55.451712,14.64452729,0.0003839,98.0876,340.2595,129.7007,230.4534,0,U,58928,999,109,0.00031301,1.61e-05,0
2024-026A,2024-026A,2024-02-15T16:03:22.496832,15.71814068,0.0008338,96.7542,305.0584,18.5041,66.327,0,U,58929,999,100,0.00027515,0.00035644,0
2024-026B,2024-026B,2024-02-16T03:49:03.476064,15.73159225,0.0005544,96.7582,305.5581,5.1816,354.9506,0,U,58930,999,106,0.00059187,0.00081636,0
AXIOM-3 DEB,2024-014B,2024-02-15T17:07:45.816672,15.94085465,0.0100286,51.2786,199.4242,80.0221,281.2081,0,U,58953,999,99,0.0014184,0.00894693,0.00035853
DRUMS TARGET-2,2021-102N,2024-02-12T16:19:14.403648,15.08507723,0.0018702,97.4501,94.671,321.7083,38.2817,0,U,58954,999,688,0.0015507,0.00024286,0
2024-028A,2024-028A,2024-02-16T00:31:13.456992,13.70227507,0.0008352,39.9906,358.2954,356.7988,3.271,0,U,58955,999,15,0,-7.8e-07,0
2024-028B,2024-028B,2024-02-16T00:31:10.116768,13.70279128,0.0008626,39.9924,358.2867,0.0224,0.0535,0,U,58956,999,14,0,-7.8e-07,0
